[
  {
    "name": "ONEWEB-0546",
    "noradId": "56048",
    "line1": "1 56048U 23043C   26198.04240713  .00000030  00000+0  45558-4 0  9995",
    "line2": "2 56048  87.9078 222.8439 0002257  75.9471 284.1910 13.16593866162892"
  },
  {
    "name": "ONEWEB-0547",
    "noradId": "56049",
    "line1": "1 56049U 23043D   26198.07249944  .00000055  00000+0  10180-3 0  9993",
    "line2": "2 56049  87.9236 238.0273 0002242  98.6698 261.4690 13.21827306162170"
  },
  {
    "name": "ONEWEB-0548",
    "noradId": "56050",
    "line1": "1 56050U 23043E   26197.61095495  .00000074  00000+0  16003-3 0  9995",
    "line2": "2 56050  87.9078 222.9250 0001583  93.4578 266.6734 13.16595272162837"
  },
  {
    "name": "ONEWEB-0549",
    "noradId": "56051",
    "line1": "1 56051U 23043F   26198.06661660  .00000080  00000+0  16112-3 0  9997",
    "line2": "2 56051  87.9229 238.0334 0002485  96.0827 264.0590 13.21827529162173"
  },
  {
    "name": "ONEWEB-0550",
    "noradId": "56052",
    "line1": "1 56052U 23043G   26198.05317006  .00000108  00000+0  23085-3 0  9997",
    "line2": "2 56052  87.9232 238.0343 0001891  98.4770 261.6578 13.21827235162174"
  },
  {
    "name": "ONEWEB-0551",
    "noradId": "56053",
    "line1": "1 56053U 23043H   26198.12182801  .00000050  00000+0  97442-4 0  9994",
    "line2": "2 56053  87.8977 253.2619 0002425 101.3920 258.7483 13.15547483160335"
  },
  {
    "name": "ONEWEB-0552",
    "noradId": "56054",
    "line1": "1 56054U 23043J   26198.04811145  .00000060  00000+0  11416-3 0  9993",
    "line2": "2 56054  87.9230 238.0398 0002117 101.9982 258.1389 13.21826633162173"
  },
  {
    "name": "ONEWEB-0553",
    "noradId": "56055",
    "line1": "1 56055U 23043K   26198.04873964  .00000087  00000+0  19517-3 0  9990",
    "line2": "2 56055  87.9075 222.8427 0002022  83.2615 276.8746 13.16593846162901"
  },
  {
    "name": "ONEWEB-0554",
    "noradId": "56056",
    "line1": "1 56056U 23043L   26198.03607561  .00000007  00000+0 -14639-4 0  9992",
    "line2": "2 56056  87.9073 222.8539 0001524  94.8511 265.2794 13.16593846162885"
  },
  {
    "name": "ONEWEB-0555",
    "noradId": "56057",
    "line1": "1 56057U 23043M   26198.07406745  .00000038  00000+0  65640-4 0  9999",
    "line2": "2 56057  87.9080 222.8349 0002148  78.8174 281.3199 13.16594390162897"
  },
  {
    "name": "ONEWEB-0557",
    "noradId": "56058",
    "line1": "1 56058U 23043N   26198.01232007 -.00000011  00000+0 -63086-4 0  9997",
    "line2": "2 56058  87.9078 222.8571 0001209  58.0189 302.1059 13.16594237162881"
  },
  {
    "name": "ONEWEB-0558",
    "noradId": "56059",
    "line1": "1 56059U 23043P   26198.11708656  .00000052  00000+0  95523-4 0  9991",
    "line2": "2 56059  87.9235 238.0218 0002423  94.9702 265.1708 13.21826215162196"
  },
  {
    "name": "ONEWEB-0559",
    "noradId": "56060",
    "line1": "1 56060U 23043Q   26197.65113478 -.00000024  00000+0 -90125-4 0  9997",
    "line2": "2 56060  87.9235 238.1100 0002236 100.0722 260.0664 13.21824400162146"
  },
  {
    "name": "ONEWEB-0566",
    "noradId": "56061",
    "line1": "1 56061U 23043R   26198.09858624  .00000022  00000+0  21869-4 0  9991",
    "line2": "2 56061  87.9234 238.0189 0002346 102.6877 257.4519 13.21824185162186"
  },
  {
    "name": "ONEWEB-0568",
    "noradId": "56062",
    "line1": "1 56062U 23043S   26198.02973410 -.00000021  00000+0 -88185-4 0  9991",
    "line2": "2 56062  87.9077 222.8430 0002103  85.3403 274.7969 13.16595603162900"
  },
  {
    "name": "ONEWEB-0574",
    "noradId": "56063",
    "line1": "1 56063U 23043T   26198.09186851  .00000024  00000+0  26667-4 0  9992",
    "line2": "2 56063  87.9240 238.0251 0001884  94.2196 265.9153 13.21825977162224"
  },
  {
    "name": "ONEWEB-0575",
    "noradId": "56064",
    "line1": "1 56064U 23043U   26198.02339639 -.00000031  00000+0 -11484-3 0  9990",
    "line2": "2 56064  87.9076 222.8405 0001731  84.3978 275.7350 13.16595414162898"
  },
  {
    "name": "ONEWEB-0576",
    "noradId": "56065",
    "line1": "1 56065U 23043V   26198.08038784  .00000024  00000+0  28907-4 0  9993",
    "line2": "2 56065  87.9083 222.8379 0001891  89.8182 270.3165 13.16596127162898"
  },
  {
    "name": "ONEWEB-0577",
    "noradId": "56066",
    "line1": "1 56066U 23043W   26198.01073241  .00000014  00000+0  21224-5 0  9999",
    "line2": "2 56066  87.9081 222.8494 0001324  84.1872 275.9410 13.16596072162916"
  },
  {
    "name": "ONEWEB-0578",
    "noradId": "56067",
    "line1": "1 56067U 23043X   26198.07840970  .00000100  00000+0  21152-3 0  9991",
    "line2": "2 56067  87.9237 238.0244 0002113  87.5726 272.5650 13.21826526162188"
  },
  {
    "name": "ONEWEB-0579",
    "noradId": "56068",
    "line1": "1 56068U 23043Y   26198.06997523 -.00000178  00000+0 -46331-3 0  9991",
    "line2": "2 56068  87.9240 238.0246 0002063 102.7244 257.4121 13.21825045162195"
  },
  {
    "name": "ONEWEB-0581",
    "noradId": "56069",
    "line1": "1 56069U 23043Z   26198.01706409 -.00000010  00000+0 -58979-4 0  9995",
    "line2": "2 56069  87.9070 222.8585 0001497  91.3997 268.7305 13.16595545162880"
  },
  {
    "name": "ONEWEB-0609",
    "noradId": "56070",
    "line1": "1 56070U 23043AA  26198.14797227  .00000205  00000+0  51013-3 0  9994",
    "line2": "2 56070  87.8981 253.2412 0002137  97.0295 263.1078 13.15547429160370"
  },
  {
    "name": "ONEWEB-0613",
    "noradId": "56071",
    "line1": "1 56071U 23043AB  26197.68925248  .00000114  00000+0  26816-3 0  9991",
    "line2": "2 56071  87.8982 253.3452 0002215 103.9634 256.1743 13.15548480160311"
  },
  {
    "name": "ONEWEB-0630",
    "noradId": "56072",
    "line1": "1 56072U 23043AC  26198.14083589  .00000203  00000+0  50633-3 0  9990",
    "line2": "2 56072  87.8987 253.2287 0002177 103.4306 256.7067 13.15549547160365"
  },
  {
    "name": "ONEWEB-0632",
    "noradId": "56073",
    "line1": "1 56073U 23043AD  26198.13609328  .00000271  00000+0  68708-3 0  9992",
    "line2": "2 56073  87.8989 253.2455 0001922  96.9867 263.1482 13.15549176160361"
  },
  {
    "name": "ONEWEB-0633",
    "noradId": "56074",
    "line1": "1 56074U 23043AE  26198.12975194 -.00001140  00000+0 -30625-2 0  9993",
    "line2": "2 56074  87.8991 253.2251 0002457 100.0293 260.1115 13.15554674160340"
  },
  {
    "name": "ONEWEB-0634",
    "noradId": "56075",
    "line1": "1 56075U 23043AF  26198.11549373 -.00000061  00000+0 -19491-3 0  9999",
    "line2": "2 56075  87.8982 253.2660 0002259  89.8950 270.2439 13.15548025160332"
  },
  {
    "name": "ONEWEB-0635",
    "noradId": "56076",
    "line1": "1 56076U 23043AG  26198.11073723 -.00000081  00000+0 -24860-3 0  9999",
    "line2": "2 56076  87.8992 253.2324 0001770  96.6864 263.4467 13.15547961160364"
  },
  {
    "name": "ONEWEB-0636",
    "noradId": "56077",
    "line1": "1 56077U 23043AH  26198.10280949 -.00000046  00000+0 -15572-3 0  9990",
    "line2": "2 56077  87.8989 253.2394 0001879  97.1369 262.9975 13.15548161160343"
  },
  {
    "name": "ONEWEB-0637",
    "noradId": "56078",
    "line1": "1 56078U 23043AJ  26197.64012986 -.00000100  00000+0 -29945-3 0  9993",
    "line2": "2 56078  87.8981 253.3457 0001943  88.9819 271.1534 13.15548717160303"
  }
]